STARLINK-2022           
1 47643U 21012Z   24081.87886279 -.00000906  00000+0 -41954-4 0  9993
2 47643  53.0548  33.9921 0001550  98.6030 261.5135 15.06404591172070
